SAR-LUPE 2              
1 31797U 07030A   26160.92029109  .00010596  00000+0  19802-3 0  9997
2 31797  98.1025 264.4601 0007497 148.7429 211.4267 15.48942473 55818
SAPPHIRE                
1 39088U 13009C   26160.84178818  .00000102  00000+0  50727-4 0  9998
2 39088  98.4259 340.4722 0009971 271.1846  88.8197 14.35238498695529
PRAETORIAN SDA_602      
1 65565U 25203A   26160.72416719  .00000039  00000+0  24467-4 0  9999
2 65565  81.3036  17.6826 0005396 205.5029 154.5863 13.84342106 37662
PRAETORIAN SDA_603      
1 65566U 25203B   26160.67619704  .00000124  00000+0  10144-3 0  9994
2 65566  81.3037  17.6384 0008958 208.8492 151.2171 13.83905122 37668
PRAETORIAN SDA_604      
1 65567U 25203C   26160.69126003  .00000091  00000+0  72561-4 0  9997
2 65567  81.3058  18.0253 0004893 213.8618 146.2226 13.83047016 37644
PRAETORIAN SDA_605      
1 65568U 25203D   26160.87565545  .00000051  00000+0  35991-4 0  9998
2 65568  81.3023  17.5249 0007718 203.4631 156.6174 13.83433724 37681
PRAETORIAN SDA_606      
1 65569U 25203E   26160.85806142  .00000055  00000+0  38929-4 0  9996
2 65569  81.3059  17.7599 0005323 202.0216 158.0713 13.83406633 37678
PRAETORIAN SDA_607      
1 65570U 25203F   26160.87073457  .00000171  00000+0  14249-3 0  9992
2 65570  81.3042  17.4227 0008284 208.4539 151.6167 13.84283525 37692
PRAETORIAN SDA_608      
1 65571U 25203G   26160.70105734  .00000072  00000+0  54585-4 0  9997
2 65571  81.3011  17.7387 0005412 212.8377 147.2443 13.83816348 37656
PRAETORIAN SDA_609      
1 65572U 25203H   26160.70820558  .00000216  00000+0  18260-3 0  9995
2 65572  81.3055  17.7167 0006350 205.3546 154.7300 13.84284967 37661
PRAETORIAN SDA_610      
1 65573U 25203J   26160.68100204  .00000048  00000+0  32929-4 0  9994
2 65573  81.3012  17.7155 0006071 210.0629 150.0180 13.83851414 37657
PRAETORIAN SDA_611      
1 65574U 25203K   26160.75117018 -.00000246  00000+0 -23487-3 0  9994
2 65574  81.3023  17.8102 0004952 217.0061 143.0755 13.83308401 37659
PRAETORIAN SDA_612      
1 65575U 25203L   26160.67782291  .00000199  00000+0  16530-3 0  9993
2 65575  81.3032  17.4831 0008719 208.0450 152.0239 13.85038708 37673
PRAETORIAN SDA_613      
1 65576U 25203M   26160.68263447  .00000047  00000+0  32635-4 0  9999
2 65576  81.3005  17.8647 0005165 205.6356 154.4545 13.82764512 37642
PRAETORIAN SDA_614      
1 65577U 25203N   26160.73783934  .00000046  00000+0  30632-4 0  9998
2 65577  81.3019  17.5028 0006641 204.7339 155.3500 13.84777815 37686
PRAETORIAN SDA_615      
1 65578U 25203P   26160.85742941  .00000070  00000+0  51752-4 0  9998
2 65578  81.3027  17.3514 0008503 206.2321 153.8406 13.84435930 37699
PRAETORIAN SDA_616      
1 65579U 25203Q   26160.67782938  .00000158  00000+0  13357-3 0  9994
2 65579  81.3063  18.0181 0004866 214.7835 145.3004 13.83267447 37640
PRAETORIAN SDA_617      
1 65580U 25203R   26160.69879422  .00000042  00000+0  27728-4 0  9993
2 65580  81.3041  17.8307 0006869 205.3484 154.7336 13.83149912 37655
PRAETORIAN SDA_618      
1 65581U 25203S   26160.68019537  .00000225  00000+0  18963-3 0  9999
2 65581  81.3027  17.4484 0009189 209.1925 150.8719 13.84668747 37679
PRAETORIAN SDA_619      
1 65582U 25203T   26160.71146057  .00000251  00000+0  21558-3 0  9995
2 65582  81.3053  17.7042 0007675 206.4901 153.5864 13.83805333 38297
PRAETORIAN SDA_620      
1 65583U 25203U   26160.73843790  .00000213  00000+0  18267-3 0  9997
2 65583  81.3035  17.6991 0007119 201.9145 158.1708 13.83617529 37669
PRAETORIAN SDA_621      
1 65584U 25203V   26160.64090632  .00000074  00000+0  55743-4 0  9993
2 65584  81.3025  17.7103 0006950 199.8490 160.2397 13.83800791 37657
PRAETORIAN SDA_601      
1 65585U 25203W   26160.68042157  .00000057  00000+0  41558-4 0  9997
2 65585  81.3050  17.9615 0004858 218.2942 141.7869 13.83167079 37641
