OBJECT_NAME,OBJECT_ID,EPOCH,MEAN_MOTION,ECCENTRICITY,INCLINATION,RA_OF_ASC_NODE,ARG_OF_PERICENTER,MEAN_ANOMALY,EPHEMERIS_TYPE,CLASSIFICATION_TYPE,NORAD_CAT_ID,ELEMENT_SET_NO,REV_AT_EPOCH,BSTAR,MEAN_MOTION_DOT,MEAN_MOTION_DDOT
SAR-LUPE 2,2007-030A,2026-06-09T22:05:13.150176,15.48942473,.00074975,98.1025,264.4601,148.7429,211.4267,0,U,31797,999,5581,.19802377E-3,.10596E-3,0
SAPPHIRE,2013-009C,2026-06-09T20:12:10.498752,14.35238498,.0009971,98.4259,340.4722,271.1846,88.8197,0,U,39088,999,69552,.50726992E-4,.102E-5,0
PRAETORIAN SDA_602,2025-203A,2026-06-09T17:22:48.045216,13.84342106,.00053963,81.3036,17.6826,205.5029,154.5863,0,U,65565,999,3766,.24466628E-4,.39E-6,0
PRAETORIAN SDA_603,2025-203B,2026-06-09T16:13:43.424256,13.83905122,.0008958,81.3037,17.6384,208.8492,151.2171,0,U,65566,999,3766,.10143671E-3,.124E-5,0
PRAETORIAN SDA_604,2025-203C,2026-06-09T16:35:24.866592,13.83047016,.00048936,81.3058,18.0253,213.8618,146.2226,0,U,65567,999,3764,.72561121E-4,.91E-6,0
PRAETORIAN SDA_605,2025-203D,2026-06-09T21:00:56.630880,13.83433724,.00077183,81.3023,17.5249,203.4631,156.6174,0,U,65568,999,3768,.35990999E-4,.51E-6,0
PRAETORIAN SDA_606,2025-203E,2026-06-09T20:35:36.506688,13.83406633,.00053232,81.3059,17.7599,202.0216,158.0713,0,U,65569,999,3767,.38929457E-4,.55E-6,0
PRAETORIAN SDA_607,2025-203F,2026-06-09T20:53:51.466848,13.84283525,.00082846,81.3042,17.4227,208.4539,151.6167,0,U,65570,999,3769,.14248935E-3,.171E-5,0
PRAETORIAN SDA_608,2025-203G,2026-06-09T16:49:31.354176,13.83816348,.00054121,81.3011,17.7387,212.8377,147.2443,0,U,65571,999,3765,.54584574E-4,.72E-6,0
PRAETORIAN SDA_609,2025-203H,2026-06-09T16:59:48.962112,13.84284967,.00063504,81.3055,17.7167,205.3546,154.7300,0,U,65572,999,3766,.18259672E-3,.216E-5,0
PRAETORIAN SDA_610,2025-203J,2026-06-09T16:20:38.576256,13.83851414,.00060713,81.3012,17.7155,210.0629,150.0180,0,U,65573,999,3765,.32929028E-4,.48E-6,0
PRAETORIAN SDA_611,2025-203K,2026-06-09T18:01:41.103552,13.83308401,.00049523,81.3023,17.8102,217.0061,143.0755,0,U,65574,999,3765,-.23486812E-3,-.246E-5,0
PRAETORIAN SDA_612,2025-203L,2026-06-09T16:16:03.899424,13.85038708,.00087199,81.3032,17.4831,208.0450,152.0239,0,U,65575,999,3767,.16529712E-3,.199E-5,0
PRAETORIAN SDA_613,2025-203M,2026-06-09T16:22:59.618208,13.82764512,.00051654,81.3005,17.8647,205.6356,154.4545,0,U,65576,999,3764,.32635445E-4,.47E-6,0
PRAETORIAN SDA_614,2025-203N,2026-06-09T17:42:29.318976,13.84777815,.00066418,81.3019,17.5028,204.7339,155.3500,0,U,65577,999,3768,.30631861E-4,.46E-6,0
PRAETORIAN SDA_615,2025-203P,2026-06-09T20:34:41.901024,13.84435930,.00085038,81.3027,17.3514,206.2321,153.8406,0,U,65578,999,3769,.51752227E-4,.7E-6,0
PRAETORIAN SDA_616,2025-203Q,2026-06-09T16:16:04.458432,13.83267447,.00048667,81.3063,18.0181,214.7835,145.3004,0,U,65579,999,3764,.1335692E-3,.158E-5,0
PRAETORIAN SDA_617,2025-203R,2026-06-09T16:46:15.820608,13.83149912,.00068697,81.3041,17.8307,205.3484,154.7336,0,U,65580,999,3765,.27727801E-4,.42E-6,0
PRAETORIAN SDA_618,2025-203S,2026-06-09T16:19:28.879968,13.84668747,.00091892,81.3027,17.4484,209.1925,150.8719,0,U,65581,999,3767,.18963032E-3,.225E-5,0
PRAETORIAN SDA_619,2025-203T,2026-06-09T17:04:30.193248,13.83805333,.00076758,81.3053,17.7042,206.4901,153.5864,0,U,65582,999,3829,.21558398E-3,.251E-5,0
PRAETORIAN SDA_620,2025-203U,2026-06-09T17:43:21.034560,13.83617529,.00071198,81.3035,17.6991,201.9145,158.1708,0,U,65583,999,3766,.18266525E-3,.213E-5,0
PRAETORIAN SDA_621,2025-203V,2026-06-09T15:22:54.306048,13.83800791,.00069503,81.3025,17.7103,199.8490,160.2397,0,U,65584,999,3765,.55742758E-4,.74E-6,0
PRAETORIAN SDA_601,2025-203W,2026-06-09T16:19:48.423648,13.83167079,.0004858,81.3050,17.9615,218.2942,141.7869,0,U,65585,999,3764,.415583E-4,.57E-6,0
